{
  "type": "FeatureCollection",
  "features": [
    {
      "type": "Feature",
      "properties": {
        "norad_id": 64751,
        "name": "PROGRESS-MS 31",
        "group": "stations",
        "lat": -50.6446493570778,
        "lon": -4.948388247119625,
        "alt_km": 419.7819253194157,
        "timestamp": "2025-12-27T08:36:17.113168+00:00",
        "meta_object_name": "PROGRESS-MS 31",
        "meta_object_id": "2025-146A",
        "meta_epoch": "2025-12-26T20:34:16.428576",
        "meta_mean_motion": 15.49855582,
        "meta_eccentricity": 0.00032301,
        "meta_inclination": 51.6319,
        "meta_ra_of_asc_node": 72.5609,
        "meta_arg_of_pericenter": 307.0606,
        "meta_mean_anomaly": 53.0087,
        "meta_ephemeris_type": 0,
        "meta_classification_type": "U",
        "meta_norad_cat_id": 64751,
        "meta_element_set_no": 999,
        "meta_rev_at_epoch": 675,
        "meta_bstar": 0.00027091986,
        "meta_mean_motion_dot": 0.00014958,
        "meta_mean_motion_ddot": 0,
        "tle_line1": "1 64751U 25146A   25360.85713459  .00014958  00000+0  27092-3 0  9998",
        "tle_line2": "2 64751  51.6319  72.5609 0003230 307.0606  53.0087 15.49855582  6752"
      },
      "geometry": {
        "type": "Point",
        "coordinates": [
          -4.948388247119625,
          -50.6446493570778
        ]
      }
    },
    {
      "type": "Feature",
      "properties": {
        "norad_id": 64786,
        "name": "TIANZHOU-9",
        "group": "stations",
        "lat": -34.8465223055888,
        "lon": 159.95412104173735,
        "alt_km": 390.31426355496933,
        "timestamp": "2025-12-27T08:36:17.113178+00:00",
        "meta_object_name": "TIANZHOU-9",
        "meta_object_id": "2025-149A",
        "meta_epoch": "2025-12-26T22:21:45.161280",
        "meta_mean_motion": 15.59735336,
        "meta_eccentricity": 0.00087329,
        "meta_inclination": 41.4675,
        "meta_ra_of_asc_node": 290.5114,
        "meta_arg_of_pericenter": 154.941,
        "meta_mean_anomaly": 205.1854,
        "meta_ephemeris_type": 0,
        "meta_classification_type": "U",
        "meta_norad_cat_id": 64786,
        "meta_element_set_no": 999,
        "meta_rev_at_epoch": 25530,
        "meta_bstar": 0.00023104085,
        "meta_mean_motion_dot": 0.00018761,
        "meta_mean_motion_ddot": 0,
        "tle_line1": "1 64786U 25149A   25360.93177270  .00018761  00000+0  23104-3 0  9999",
        "tle_line2": "2 64786  41.4675 290.5114 0008732 154.9410 205.1854 15.59735336255303"
      },
      "geometry": {
        "type": "Point",
        "coordinates": [
          159.95412104173735,
          -34.8465223055888
        ]
      }
    },
    {
      "type": "Feature",
      "properties": {
        "norad_id": 65077,
        "name": "CREW DRAGON 11",
        "group": "stations",
        "lat": -50.644649082565294,
        "lon": -4.94838615535962,
        "alt_km": 419.78192528634463,
        "timestamp": "2025-12-27T08:36:17.113189+00:00",
        "meta_object_name": "CREW DRAGON 11",
        "meta_object_id": "2025-166A",
        "meta_epoch": "2025-12-26T20:34:16.428576",
        "meta_mean_motion": 15.49855582,
        "meta_eccentricity": 0.00032301,
        "meta_inclination": 51.6319,
        "meta_ra_of_asc_node": 72.5609,
        "meta_arg_of_pericenter": 307.0606,
        "meta_mean_anomaly": 53.0087,
        "meta_ephemeris_type": 0,
        "meta_classification_type": "U",
        "meta_norad_cat_id": 65077,
        "meta_element_set_no": 999,
        "meta_rev_at_epoch": 214,
        "meta_bstar": 0.00027091986,
        "meta_mean_motion_dot": 0.00014958,
        "meta_mean_motion_ddot": 0,
        "tle_line1": "1 65077U 25166A   25360.85713459  .00014958  00000+0  27092-3 0  9992",
        "tle_line2": "2 65077  51.6319  72.5609 0003230 307.0606  53.0087 15.49855582  2143"
      },
      "geometry": {
        "type": "Point",
        "coordinates": [
          -4.94838615535962,
          -50.644649082565294
        ]
      }
    },
    {
      "type": "Feature",
      "properties": {
        "norad_id": 65304,
        "name": "DRAGON CRS-33",
        "group": "stations",
        "lat": -50.64464889955695,
        "lon": -4.948384760853062,
        "alt_km": 419.78192526429484,
        "timestamp": "2025-12-27T08:36:17.113203+00:00",
        "meta_object_name": "DRAGON CRS-33",
        "meta_object_id": "2025-186A",
        "meta_epoch": "2025-12-26T20:34:16.428576",
        "meta_mean_motion": 15.49855582,
        "meta_eccentricity": 0.00032301,
        "meta_inclination": 51.6319,
        "meta_ra_of_asc_node": 72.5609,
        "meta_arg_of_pericenter": 307.0606,
        "meta_mean_anomaly": 53.0087,
        "meta_ephemeris_type": 0,
        "meta_classification_type": "U",
        "meta_norad_cat_id": 65304,
        "meta_element_set_no": 999,
        "meta_rev_at_epoch": 11,
        "meta_bstar": 0.00027091986,
        "meta_mean_motion_dot": 0.00014958,
        "meta_mean_motion_ddot": 0,
        "tle_line1": "1 65304U 25186A   25360.85713459  .00014958  00000+0  27092-3 0  9997",
        "tle_line2": "2 65304  51.6319  72.5609 0003230 307.0606  53.0087 15.49855582   111"
      },
      "geometry": {
        "type": "Point",
        "coordinates": [
          -4.948384760853062,
          -50.64464889955695
        ]
      }
    },
    {
      "type": "Feature",
      "properties": {
        "norad_id": 65586,
        "name": "PROGRESS-MS 32",
        "group": "stations",
        "lat": -50.644648768836625,
        "lon": -4.948383764776616,
        "alt_km": 419.78192524854785,
        "timestamp": "2025-12-27T08:36:17.113213+00:00",
        "meta_object_name": "PROGRESS-MS 32",
        "meta_object_id": "2025-204A",
        "meta_epoch": "2025-12-26T20:34:16.428576",
        "meta_mean_motion": 15.49855582,
        "meta_eccentricity": 0.00032301,
        "meta_inclination": 51.6319,
        "meta_ra_of_asc_node": 72.5609,
        "meta_arg_of_pericenter": 307.0606,
        "meta_mean_anomaly": 53.0087,
        "meta_ephemeris_type": 0,
        "meta_classification_type": "U",
        "meta_norad_cat_id": 65586,
        "meta_element_set_no": 999,
        "meta_rev_at_epoch": 27,
        "meta_bstar": 0.00027091986,
        "meta_mean_motion_dot": 0.00014958,
        "meta_mean_motion_ddot": 0,
        "tle_line1": "1 65586U 25204A   25360.85713459  .00014958  00000+0  27092-3 0  9990",
        "tle_line2": "2 65586  51.6319  72.5609 0003230 307.0606  53.0087 15.49855582   270"
      },
      "geometry": {
        "type": "Point",
        "coordinates": [
          -4.948383764776616,
          -50.644648768836625
        ]
      }
    },
    {
      "type": "Feature",
      "properties": {
        "norad_id": 65616,
        "name": "CYGNUS NG-23",
        "group": "stations",
        "lat": -50.6446486381164,
        "lon": -4.948382768700707,
        "alt_km": 419.7819252327972,
        "timestamp": "2025-12-27T08:36:17.113223+00:00",
        "meta_object_name": "CYGNUS NG-23",
        "meta_object_id": "2025-208A",
        "meta_epoch": "2025-12-26T20:34:16.428576",
        "meta_mean_motion": 15.49855582,
        "meta_eccentricity": 0.00032301,
        "meta_inclination": 51.6319,
        "meta_ra_of_asc_node": 72.5609,
        "meta_arg_of_pericenter": 307.0606,
        "meta_mean_anomaly": 53.0087,
        "meta_ephemeris_type": 0,
        "meta_classification_type": "U",
        "meta_norad_cat_id": 65616,
        "meta_element_set_no": 999,
        "meta_rev_at_epoch": 22,
        "meta_bstar": 0.00027091986,
        "meta_mean_motion_dot": 0.00014958,
        "meta_mean_motion_ddot": 0,
        "tle_line1": "1 65616U 25208A   25360.85713459  .00014958  00000+0  27092-3 0  9998",
        "tle_line2": "2 65616  51.6319  72.5609 0003230 307.0606  53.0087 15.49855582   229"
      },
      "geometry": {
        "type": "Point",
        "coordinates": [
          -4.948382768700707,
          -50.6446486381164
        ]
      }
    },
    {
      "type": "Feature",
      "properties": {
        "norad_id": 65729,
        "name": "DRAGONFLY",
        "group": "stations",
        "lat": 42.21610089280683,
        "lon": -165.34466660248395,
        "alt_km": 335.42736373681237,
        "timestamp": "2025-12-27T08:36:17.113234+00:00",
        "meta_object_name": "DRAGONFLY",
        "meta_object_id": "1998-067XH",
        "meta_epoch": "2025-12-26T10:48:09.332064",
        "meta_mean_motion": 15.76805342,
        "meta_eccentricity": 0.0008231,
        "meta_inclination": 51.6248,
        "meta_ra_of_asc_node": 65.3139,
        "meta_arg_of_pericenter": 358.0707,
        "meta_mean_anomaly": 2.026,
        "meta_ephemeris_type": 0,
        "meta_classification_type": "U",
        "meta_norad_cat_id": 65729,
        "meta_element_set_no": 999,
        "meta_rev_at_epoch": 1532,
        "meta_bstar": 0.0012148,
        "meta_mean_motion_dot": 0.00204396,
        "meta_mean_motion_ddot": 0,
        "tle_line1": "1 65729U 98067XH  25360.45010801  .00204396  00000+0  12148-2 0  9995",
        "tle_line2": "2 65729  51.6248  65.3139 0008231 358.0707   2.0260 15.76805342 15320"
      },
      "geometry": {
        "type": "Point",
        "coordinates": [
          -165.34466660248395,
          42.21610089280683
        ]
      }
    }
  ]
}